     2.10           G: GLONASS NAV DATA                     RINEX VERSION / TYPE
teqc  2015Jun23                         20210912 01:26:21UTCPGM / RUN BY / DATE
Linux 2.4.21-27.ELsmp|Opteron|gcc -static|Linux x86_64|=+   COMMENT
  2021     8    19   -9.313225746155D-10                    CORR TO SYSTEM TIME
                                                            END OF HEADER
16 21  8 20 17 45  0.0-1.994520425797D-05-9.094947017729D-13 6.300000000000D+04
    4.671513183594D+03-2.874732971191D+00-0.000000000000D+00 0.000000000000D+00
    1.231142529297D+04-8.277864456177D-01-0.000000000000D+00-1.000000000000D+00
    2.180764404297D+04 1.094022750854D+00-2.793967723846D-09 0.000000000000D+00
17 21  8 20 17 45  0.0 4.514651373029D-04 2.728484105319D-12 6.300000000000D+04
   -1.817614941406D+04 1.792114257812D+00 1.862645149231D-09 0.000000000000D+00
    6.427296386719D+03-1.436491012573D+00-1.862645149231D-09 4.000000000000D+00
    1.673213183594D+04 2.494538307190D+00-9.313225746155D-10 0.000000000000D+00
18 21  8 20 17 45  0.0 8.761789649725D-05 9.094947017729D-13 6.300000000000D+04
   -1.922502343750D+04 3.005533218384D-01 2.793967723846D-09 0.000000000000D+00
    1.667349609375D+04 4.847621917725D-02 9.313225746155D-10-3.000000000000D+00
    1.389734375000D+03 3.603449821472D+00-9.313225746155D-10 0.000000000000D+00
19 21  8 20 17 45  0.0-1.561623066664D-04-9.094947017729D-13 6.300000000000D+04
   -1.132304296875D+04-1.319798469543D+00 2.793967723846D-09 0.000000000000D+00
    1.805083349609D+04 1.415315628052D+00 4.656612873077D-09 3.000000000000D+00
   -1.403742773438D+04 2.884354591370D+00-0.000000000000D+00 0.000000000000D+00
 4 21  8 20 18 15  0.0 1.009767875075D-04 9.094947017729D-13 6.480000000000D+04
   -7.758478515625D+03-1.026087760925D+00 1.862645149231D-09 0.000000000000D+00
    9.290253906250D+03-2.903050422668D+00 2.793967723846D-09 6.000000000000D+00
   -2.242778857422D+04-8.473615646362D-01 9.313225746155D-10 0.000000000000D+00
 5 21  8 20 18 15  0.0 7.748603820801D-05 9.094947017729D-13 6.480000000000D+04
    1.920691894531D+03-4.424381256104D-01 2.793967723846D-09 0.000000000000D+00
    2.216394091797D+04-1.656764984131D+00 5.587935447693D-09 1.000000000000D+00
   -1.245017968750D+04-3.017580986023D+00-9.313225746155D-10 0.000000000000D+00
 6 21  8 20 18 15  0.0 2.035861834884D-04 0.000000000000D+00 6.480000000000D+04
    1.215307177734D+04 4.857845306396D-01 0.000000000000D+00 0.000000000000D+00
    2.127387890625D+04 8.471755981445D-01 3.725290298462D-09-4.000000000000D+00
    7.046074218750D+03-3.391912460327D+00-3.725290298462D-09 0.000000000000D+00
16 21  8 20 18 15  0.0-1.994706690311D-05-9.094947017729D-13 6.480000000000D+04
   -7.575131835938D+02-3.109422683716D+00 0.000000000000D+00 0.000000000000D+00
    1.116382910156D+04-4.303665161133D-01-9.313225746155D-10-1.000000000000D+00
    2.290576611328D+04 1.185169219971D-01-2.793967723846D-09 0.000000000000D+00
18 21  8 20 18 15  0.0 8.761975914240D-05 9.094947017729D-13 6.480000000000D+04
   -1.815027001953D+04 8.561420440674D-01 2.793967723846D-09 0.000000000000D+00
    1.613706005859D+04-6.658229827881D-01-0.000000000000D+00-3.000000000000D+00
    7.738057128906D+03 3.404335975647D+00-9.313225746155D-10 0.000000000000D+00
19 21  8 20 18 15  0.0-1.561641693115D-04-9.094947017729D-13 6.480000000000D+04
   -1.302717285156D+04-5.815572738647D-01 3.725290298462D-09 0.000000000000D+00
    2.028089550781D+04 1.017591476440D+00 2.793967723846D-09 3.000000000000D+00
   -8.370432128906D+03 3.371466636658D+00-9.313225746155D-10 0.000000000000D+00
 6 21  8 20 18 45  0.0 2.035871148109D-04 0.000000000000D+00 6.660000000000D+04
    1.278478564453D+04 1.762895584106D-01 1.862645149231D-09 0.000000000000D+00
    2.204624121094D+04 2.027702331543D-02 4.656612873077D-09-4.000000000000D+00
    7.467651367188D+02-3.561783790588D+00-2.793967723846D-09 0.000000000000D+00
 5 21  8 20 18 45  0.0 7.748696953058D-05 9.094947017729D-13 6.660000000000D+04
    6.401225585938D+02-9.953527450562D-01 2.793967723846D-09 0.000000000000D+00
    1.868806787109D+04-2.161442756653D+00 4.656612873077D-09 1.000000000000D+00
   -1.732940966797D+04-2.368541717529D+00-0.000000000000D+00 0.000000000000D+00
18 21  8 20 18 45  0.0 8.762162178755D-05 9.094947017729D-13 6.660000000000D+04
   -1.629423144531D+04 1.161035537720D+00 9.313225746155D-10 0.000000000000D+00
    1.423256347656D+04-1.452860832214D+00-1.862645149231D-09-3.000000000000D+00
    1.348675097656D+04 2.941592216492D+00-9.313225746155D-10 0.000000000000D+00
19 21  8 20 18 45  0.0-1.561669632792D-04-9.094947017729D-13 6.660000000000D+04
   -1.347817919922D+04 5.485439300537D-02 3.725290298462D-09 0.000000000000D+00
    2.156737402344D+04 3.766489028931D-01 9.313225746155D-10 3.000000000000D+00
   -2.056803222656D+03 3.598164558411D+00-9.313225746155D-10 0.000000000000D+00
20 21  8 20 18 45  0.0-5.448423326015D-05-0.000000000000D+00 6.711000000000D+04
   -9.199233398438D+02-1.370837211609D+00 3.725290298462D-09 0.000000000000D+00
    1.661756640625D+04 2.274189949036D+00 4.656612873077D-09 2.000000000000D+00
   -1.931562304688D+04 2.024439811707D+00-0.000000000000D+00 0.000000000000D+00
 6 21  8 20 19 15  0.0 2.035880461335D-04 0.000000000000D+00 6.840000000000D+04
    1.265823144531D+04-3.476591110229D-01 2.793967723846D-09 0.000000000000D+00
    2.141276367188D+04-6.975116729736D-01 4.656612873077D-09-4.000000000000D+00
   -5.610412597656D+03-3.455822944641D+00-2.793967723846D-09 0.000000000000D+00
 5 21  8 20 19 15  0.0 7.748790085316D-05 9.094947017729D-13 6.840000000000D+04
   -1.684110839844D+03-1.583807945251D+00 3.725290298462D-09 0.000000000000D+00
    1.455296386719D+04-2.383967399597D+00 2.793967723846D-09 1.000000000000D+00
   -2.086669921875D+04-1.536262512207D+00 0.000000000000D+00 0.000000000000D+00
18 21  8 20 19 15  0.0 8.762348443270D-05 9.094947017729D-13 6.840000000000D+04
   -1.413531250000D+04 1.192915916443D+00 0.000000000000D+00 0.000000000000D+00
    1.093337060547D+04-2.195659637451D+00-2.793967723846D-09-3.000000000000D+00
    1.819100390625D+04 2.251463890076D+00-9.313225746155D-10 0.000000000000D+00
19 21  8 20 19 15  0.0-1.561697572470D-04-9.094947017729D-13 6.840000000000D+04
   -1.294700976562D+04 4.969758987427D-01 2.793967723846D-09 0.000000000000D+00
    2.153701953125D+04-4.296379089355D-01-0.000000000000D+00 3.000000000000D+00
    4.415727539062D+03 3.546863555908D+00-9.313225746155D-10 0.000000000000D+00
20 21  8 20 19 15  0.0-5.448609590530D-05-0.000000000000D+00 6.840000000000D+04
   -2.821801757812D+03-7.469682693481D-01 3.725290298462D-09 0.000000000000D+00
    2.044094482422D+04 1.925027847290D+00 2.793967723846D-09 2.000000000000D+00
   -1.497101660156D+04 2.771566390991D+00-0.000000000000D+00 0.000000000000D+00
 7 21  8 20 19 15  0.0-4.158820956945D-05 0.000000000000D+00 6.864000000000D+04
    1.725071777344D+04 1.021642684937D+00 9.313225746155D-10 0.000000000000D+00
    1.488639599609D+04 1.192724227905D+00 2.793967723846D-09 5.000000000000D+00
    1.145456542969D+04-3.102147102356D+00-3.725290298462D-09 0.000000000000D+00
16 21  8 20 19 15  0.0-1.995265483856D-05-0.000000000000D+00 6.882000000000D+04
   -1.153783007812D+04-2.683893203735D+00 0.000000000000D+00 0.000000000000D+00
    1.118958935547D+04 4.073610305786D-01-1.862645149231D-09-1.000000000000D+00
    1.983663281250D+04-1.777775764465D+00-1.862645149231D-09 0.000000000000D+00
 6 21  8 20 19 45  0.0 2.035889774561D-04 0.000000000000D+00 7.020000000000D+04
    1.144758447266D+04-1.013377189636D+00 4.656612873077D-09 0.000000000000D+00
    1.965582568359D+04-1.215454101562D+00 4.656612873077D-09-4.000000000000D+00
   -1.153333984375D+04-3.082468032837D+00-1.862645149231D-09 0.000000000000D+00
 5 21  8 20 19 45  0.0 7.748883217573D-05 9.094947017729D-13 7.020000000000D+04
   -5.015984375000D+03-2.096550941467D+00 2.793967723846D-09 0.000000000000D+00
    1.028092285156D+04-2.316160202026D+00 9.313225746155D-10 1.000000000000D+00
   -2.278858886719D+04-5.853481292725D-01 1.862645149231D-09 0.000000000000D+00
 7 21  8 20 19 45  0.0-4.158820956945D-05-0.000000000000D+00 7.020000000000D+04
    1.877084960938D+04 6.256532669067D-01 1.862645149231D-09 0.000000000000D+00
    1.634838037109D+04 4.407014846802D-01 3.725290298462D-09 5.000000000000D+00
    5.499608886719D+03-3.471529006958D+00-3.725290298462D-09 0.000000000000D+00
16 21  8 20 19 45  0.0-1.995358616114D-05-0.000000000000D+00 7.020000000000D+04
   -1.585597363281D+04-2.079550743103D+00 0.000000000000D+00 0.000000000000D+00
    1.216735742188D+04 6.472120285034D-01-2.793967723846D-09-1.000000000000D+00
    1.591357861328D+04-2.552728652954D+00-0.000000000000D+00 0.000000000000D+00
19 21  8 20 19 45  0.0-1.561725512147D-04-9.094947017729D-13 7.020000000000D+04
   -1.184030761719D+04 6.885652542114D-01 1.862645149231D-09 0.000000000000D+00
    1.998575048828D+04-1.293714523315D+00-9.313225746155D-10 3.000000000000D+00
    1.054700341797D+04 3.221438407898D+00-9.313225746155D-10 0.000000000000D+00
20 21  8 20 19 45  0.0-5.448702722788D-05-0.000000000000D+00 7.020000000000D+04
   -3.658916503906D+03-2.056589126587D-01 4.656612873077D-09 0.000000000000D+00
    2.338408984375D+04 1.304735183716D+00 9.313225746155D-10 2.000000000000D+00
   -9.466951660156D+03 3.304303169250D+00-9.313225746155D-10 0.000000000000D+00
21 21  8 20 19 45  0.0-2.329982817173D-04-2.728484105319D-12 7.164000000000D+04
    7.337417480469D+03-8.482227325439D-01 3.725290298462D-09 0.000000000000D+00
    1.007139501953D+04 2.931805610657D+00 3.725290298462D-09 4.000000000000D+00
   -2.226897949219D+04 1.043475151062D+00 0.000000000000D+00 0.000000000000D+00
 9 21  8 20 19 45  0.0 9.072944521904D-06 1.818989403546D-12 7.173000000000D+04
    1.333317382812D+03-3.029119491577D+00-0.000000000000D+00 0.000000000000D+00
    1.128974169922D+04 7.525196075439D-01-9.313225746155D-10-2.000000000000D+00
    2.285404101562D+04-2.021226882935D-01-2.793967723846D-09 0.000000000000D+00
